[{"OBJECT_NAME":"STARLINK-3919","OBJECT_ID":"2022-051AW","EPOCH":"2026-03-09T11:05:32.756352","MEAN_MOTION":15.0884405,"ECCENTRICITY":0.00013977,"INCLINATION":53.2161,"RA_OF_ASC_NODE":135.1523,"ARG_OF_PERICENTER":93.5124,"MEAN_ANOMALY":266.6028,"EPHEMERIS_TYPE":0,"CLASSIFICATION_TYPE":"U","NORAD_CAT_ID":52580,"ELEMENT_SET_NO":999,"REV_AT_EPOCH":21134,"BSTAR":4.3521448e-5,"MEAN_MOTION_DOT":4.05e-6,"MEAN_MOTION_DDOT":0},{"OBJECT_NAME":"OBJECT E","OBJECT_ID":"2025-013E","EPOCH":"2026-03-09T23:59:52.369152","MEAN_MOTION":15.10347623,"ECCENTRICITY":0.00085591,"INCLINATION":97.6477,"RA_OF_ASC_NODE":238.3736,"ARG_OF_PERICENTER":6.9171,"MEAN_ANOMALY":353.2174,"EPHEMERIS_TYPE":0,"CLASSIFICATION_TYPE":"U","NORAD_CAT_ID":62733,"ELEMENT_SET_NO":999,"REV_AT_EPOCH":6224,"BSTAR":0.00032920786,"MEAN_MOTION_DOT":5.34e-5,"MEAN_MOTION_DDOT":0}]
